IRIDIUM 119             
1 42959U 17061E   25325.49558690  .00000256  00000+0  84395-4 0  9992
2 42959  86.3950 112.0956 0001931  85.1061 275.0355 14.34218446425040
IRIDIUM 107             
1 42960U 17061F   25325.44484524  .00000283  00000+0  93993-4 0  9997
2 42960  86.3950 112.1370 0001506  91.7019 268.4349 14.34218238425045
IRIDIUM 132             
1 42961U 17061G   25325.45118907  .00000275  00000+0  91003-4 0  9999
2 42961  86.3948 112.1149 0001874  93.0370 267.1040 14.34217380425041
IRIDIUM 136             
1 42962U 17061H   25325.48290170  .00000221  00000+0  71751-4 0  9995
2 42962  86.3950 112.1074 0001929  90.1213 270.0204 14.34218132425060
IRIDIUM 139             
1 42963U 17061J   25325.48924806  .00000341  00000+0  11473-3 0  9993
2 42963  86.3951 112.1635 0001820  94.4472 265.6931 14.34217929425070
IRIDIUM 125             
1 42964U 17061K   25325.47656314  .00000339  00000+0  11404-3 0  9990
2 42964  86.3953 112.2262 0001577  80.2439 279.8935 14.34217798425081
IRIDIUM 135             
1 43070U 17083A   25325.59023416  .00000344  00000+0  11580-3 0  9998
2 43070  86.3984  48.7840 0002209  97.0327 263.1120 14.34216349414399
IRIDIUM 138             
1 43071U 17083B   25325.33652955  .00000371  00000+0  12541-3 0  9995
2 43071  86.3998  48.5533 0002127  84.5330 275.6108 14.34216375414344
